NORAD_CAT_ID,OBJECT_NAME,OBJECT_TYPE,EPOCH,MEAN_MOTION,ECCENTRICITY,INCLINATION,RA_OF_ASC_NODE,ARG_OF_PERICENTER,MEAN_ANOMALY,BSTAR,MEAN_MOTION_DOT,MEAN_MOTION_DDOT,TLE_LINE0,TLE_LINE1,TLE_LINE2,SEMIMAJOR_AXIS,PERIOD,APOGEE,PERIGEE,DECAYED
54012.0,STARLINK-5126,PAYLOAD,2023-01-04 22:00:00,15.08797958,0.0001537,53.2137,10.4124,54.1535,115.3731,0.0037829,0.00060363,0.0,0 STARLINK-5126,1 54012U 22125BA  23004.91667824  .00060363  00000-0  37829-2 0  9995,2 54012  53.2137  10.4124 0001537  54.1535 115.3731 15.08797958  1300,6918.009,95.44,540.937,538.811,0.0
54012.0,STARLINK-5126,PAYLOAD,2023-01-05 06:00:00,15.088332800000002,0.0001657,53.2138,8.9174,49.8495,131.2469,-0.0023365,-0.00037275,0.0,0 STARLINK-5126,1 54012U 22125BA  23005.25001157 -.00037275  00000-0 -23365-2 0  9992,2 54012  53.2138   8.9174 0001657  49.8495 131.2469 15.08833280 14620,6917.901,95.438,540.9119999999998,538.62,0.0
54012.0,STARLINK-5126,PAYLOAD,2023-01-05 14:00:01,15.088287,0.0001634,53.2138,7.4209,46.3256,146.3351,-0.00016649,-2.936e-05,0.0,0 STARLINK-5126,1 54012U 22125BA  23005.58334491 -.00002936  00000-0 -16649-3 0  9992,2 54012  53.2138   7.4209 0001634  46.3256 146.3351 15.08828700  1304,6917.915,95.438,540.91,538.65,0.0
54012.0,STARLINK-5126,PAYLOAD,2023-01-05 20:00:01,15.08815216,0.0001443999999999,53.2141,6.2973,50.99,60.3628,0.00065805,0.00010193,0.0,0 STARLINK-5126,1 54012U 22125BA  23005.83334491  .00010193  00000-0  65805-3 0  9990,2 54012  53.2141   6.2973 0001444  50.9900  60.3628 15.08815216  1309,6917.956,95.439,540.82,538.822,0.0
54012.0,STARLINK-5126,PAYLOAD,2023-01-06 09:49:01,15.08814734,0.0001683,53.2148,3.7132,54.107,306.0078,6.1399e-05,6.89e-06,0.0,0 STARLINK-5126,1 54012U 22125BA  23006.40904304  .00000689  00000-0  61399-4 0  9994,2 54012  53.2148   3.7132 0001683  54.1070 306.0078 15.08814734 14794,6917.958000000001,95.439,540.987,538.658,0.0
54012.0,STARLINK-5126,PAYLOAD,2023-01-07 00:07:28,15.08837173,0.000143,53.216,1.0363,45.8608,314.2501,0.00011224,1.499e-05,0.0,0 STARLINK-5126,1 54012U 22125BA  23007.00519147  .00001499  00000-0  11224-3 0  9999,2 54012  53.2160   1.0363 0001430  45.8608 314.2501 15.08837173 14883,6917.889,95.438,540.743,538.765,0.0
54012.0,STARLINK-5126,PAYLOAD,2023-01-07 06:29:00,15.08845171,0.0001493,53.2156,359.8471,48.6265,311.4855,0.00016949,2.411e-05,0.0,0 STARLINK-5126,1 54012U 22125BA  23007.27014454  .00002411  00000-0  16949-3 0  9993,2 54012  53.2156 359.8471 0001493  48.6265 311.4855 15.08845171 14878,6917.865,95.437,540.762,538.697,0.0
54012.0,STARLINK-5126,PAYLOAD,2023-01-07 09:39:46,15.08844498,0.0001505,53.2155,359.2527,49.523,310.5893,0.00016425,2.327e-05,0.0,0 STARLINK-5126,1 54012U 22125BA  23007.40262472  .00002327  00000-0  16425-3 0  9998,2 54012  53.2155 359.2527 0001505  49.5230 310.5893 15.08844498 14940,6917.866999999998,95.437,540.773,538.691,0.0
54012.0,STARLINK-5126,PAYLOAD,2023-01-07 16:01:20,15.08837368,0.0001545,53.2139,358.0619999999999,40.0785,320.0321,6.2099e-05,7.000000000000002e-06,0.0,0 STARLINK-5126,1 54012U 22125BA  23007.66759272  .00000700  00000-0  62099-4 0  9997,2 54012  53.2139 358.0620 0001545  40.0785 320.0321 15.08837368 14982,6917.888000000001,95.438,540.822,538.685,0.0
54012.0,STARLINK-5126,PAYLOAD,2023-01-07 22:22:53,15.08829107,0.0001797,53.2153,356.8737,56.7811,303.3353,2.8817e-05,1.7e-06,0.0,0 STARLINK-5126,1 54012U 22125BA  23007.93256226  .00000170  00000-0  28817-4 0  9999,2 54012  53.2153 356.8737 0001797  56.7811 303.3353 15.08829107 14976,6917.914000000002,95.438,541.0219999999998,538.536,0.0
54012.0,STARLINK-5126,PAYLOAD,2023-01-08 01:33:40,15.08823857,0.0001724,53.2151,356.2787,55.7252,304.3903,-1.752e-05,-5.67e-06,0.0,0 STARLINK-5126,1 54012U 22125BA  23008.06504796 -.00000567  00000-0 -17520-4 0  9993,2 54012  53.2151 356.2787 0001724  55.7252 304.3903 15.08823857 15048,6917.93,95.439,540.987,538.602,0.0
54012.0,STARLINK-5126,PAYLOAD,2023-01-08 09:30:35,15.08834716,0.0001647,53.217,354.7928,56.1255,303.9893,5.341300000000001e-05,5.62e-06,0.0,0 STARLINK-5126,1 54012U 22125BA  23008.39623982  .00000562  00000-0  53413-4 0  9992,2 54012  53.2170 354.7928 0001647  56.1255 303.9893 15.08834716 15095,6917.897,95.438,540.901,538.622,0.0
54012.0,STARLINK-5126,PAYLOAD,2023-01-10 04:25:59,15.08841178,0.0001606,53.2155,346.76199999999994,59.2255,300.8895,9.5106e-05,1.226e-05,0.0,0 STARLINK-5126,1 54012U 22125BA  23010.18471101  .00001226  00000-0  95106-4 0  9999,2 54012  53.2155 346.7620 0001606  59.2255 300.8895 15.08841178 15365,6917.877,95.437,540.8530000000002,538.631,0.0
54012.0,STARLINK-5126,PAYLOAD,2023-01-10 10:47:32,15.0883798,0.0001903,53.2153,345.5731,54.3856,305.7313,-1.0806e-06,-3.05e-06,0.0,0 STARLINK-5126,1 54012U 22125BA  23010.44967666 -.00000305  00000-0 -10806-5 0  9998,2 54012  53.2153 345.5731 0001903  54.3856 305.7313 15.08837980 15350,6917.887,95.438,541.068,538.435,0.0
54012.0,STARLINK-5126,PAYLOAD,2023-01-10 21:55:13,15.088399,0.0001488,53.2152,343.4912,60.65,299.4641,-1.0203e-05,-4.5e-06,0.0,0 STARLINK-5126,1 54012U 22125BA  23010.91335352 -.00000450  00000-0 -10203-4 0  9992,2 54012  53.2152 343.4912 0001488  60.6500 299.4641 15.08839900 15426,6917.880999999999,95.438,540.775,538.716,0.0
54012.0,STARLINK-5126,PAYLOAD,2023-01-11 04:16:45,15.08850543,0.0001506999999999,53.215,342.3016,60.6949,299.4193,8.7268e-06,-1.49e-06,0.0,0 STARLINK-5126,1 54012U 22125BA  23011.17830688 -.00000149  00000-0  87268-5 0  9993,2 54012  53.2150 342.3016 0001507  60.6949 299.4193 15.08850543 15468,6917.848000000001,95.437,540.756,538.6709999999998,0.0
54012.0,STARLINK-5126,PAYLOAD,2023-01-11 16:59:51,15.08839175,0.0001473,53.2149,339.923,63.1899,296.9244,-4.7615e-05,-1.046e-05,0.0,0 STARLINK-5126,1 54012U 22125BA  23011.70823313 -.00001046  00000-0 -47615-4 0  9998,2 54012  53.2149 339.9230 0001473  63.1899 296.9244 15.08839175 15591,6917.883000000002,95.438,540.7669999999998,538.729,0.0
54012.0,STARLINK-5126,PAYLOAD,2023-01-11 21:46:01,15.0883141,0.0001467,53.215,339.0306,62.9595,297.1547,-0.0001078,-2.003e-05,0.0,0 STARLINK-5126,1 54012U 22125BA  23011.90696021 -.00002003  00000-0 -10780-3 0  9990,2 54012  53.2150 339.0306 0001467  62.9595 297.1547 15.08831410 15572,6917.906999999998,95.438,540.7869999999998,538.757,0.0
54012.0,STARLINK-5126,PAYLOAD,2023-01-12 18:26:02,15.08819749,0.0001258,53.2151,335.165,70.798,289.3148,-0.00012397,-2.259e-05,0.0,0 STARLINK-5126,1 54012U 22125BA  23012.76808842 -.00002259  00000-0 -12397-3 0  9990,2 54012  53.2151 335.1650 0001258  70.7980 289.3148 15.08819749 15756,6917.941999999999,95.439,540.678,538.937,0.0
54012.0,STARLINK-5126,PAYLOAD,2023-01-12 21:36:48,15.08823874,0.0001271,53.215,334.57,76.6749,283.4385,-0.00011702,-2.149e-05,0.0,0 STARLINK-5126,1 54012U 22125BA  23012.90056688 -.00002149  00000-0 -11702-3 0  9996,2 54012  53.2150 334.5700 0001271  76.6749 283.4385 15.08823874 15726,6917.93,95.439,540.674,538.915,0.0
54012.0,STARLINK-5126,PAYLOAD,2023-01-13 03:58:21,15.08830896,0.0001269,53.215,333.3806,74.8684,285.2448,-2.0114e-05,-6.08e-06,0.0,0 STARLINK-5126,1 54012U 22125BA  23013.16552130 -.00000608  00000-0 -20114-4 0  9994,2 54012  53.2150 333.3806 0001269  74.8684 285.2448 15.08830896 15817,6917.908,95.438,540.651,538.895,0.0
54012.0,STARLINK-5126,PAYLOAD,2023-01-13 11:55:17,15.08818774,0.0001403,53.215,331.8941,84.1226,275.9926,-0.00015118,-2.692e-05,0.0,0 STARLINK-5126,1 54012U 22125BA  23013.49673383 -.00002692  00000-0 -15118-3 0  9996,2 54012  53.2150 331.8941 0001403  84.1226 275.9926 15.08818774 15869,6917.945,95.439,540.781,538.84,0.0
54012.0,STARLINK-5126,PAYLOAD,2023-01-13 18:16:49,15.08820412,0.0001305,53.215,330.7043,71.9899,288.1235,1.0013e-05,-1.29e-06,0.0,0 STARLINK-5126,1 54012U 22125BA  23013.76168959 -.00000129  00000-0  10013-4 0  9996,2 54012  53.2150 330.7043 0001305  71.9899 288.1235 15.08820412 15907,6917.94,95.439,540.7080000000001,538.9019999999999,0.0
54012.0,STARLINK-5126,PAYLOAD,2023-01-13 21:27:35,15.08828801,0.0001269,53.2151,330.1092,86.2093,273.9044,8.0058e-05,9.86e-06,0.0,0 STARLINK-5126,1 54012U 22125BA  23013.89416277  .00000986  00000-0  80058-4 0  9995,2 54012  53.2151 330.1092 0001269  86.2093 273.9044 15.08828801 15876,6917.915,95.438,540.658,538.9019999999999,0.0
54012.0,STARLINK-5126,PAYLOAD,2023-01-14 02:13:44,15.08836361,0.000126,53.2152,329.2172,86.0331,274.0806,0.00013923,1.928e-05,0.0,0 STARLINK-5126,1 54012U 22125BA  23014.09287737  .00001928  00000-0  13923-3 0  9998,2 54012  53.2152 329.2172 0001260  86.0331 274.0806 15.08836361 15956,6917.892,95.438,540.628,538.885,0.0
54012.0,STARLINK-5126,PAYLOAD,2023-01-14 10:10:38,15.08858396,0.0001291,53.2152,327.7309,80.1697,279.9441,0.00018438,2.649e-05,0.0,0 STARLINK-5126,1 54012U 22125BA  23014.42406131  .00002649  00000-0  18438-3 0  9993,2 54012  53.2152 327.7309 0001291  80.1697 279.9441 15.08858396 16003,6917.8240000000005,95.436,540.582,538.7959999999999,0.0
54012.0,STARLINK-5126,PAYLOAD,2023-01-14 19:43:00,15.08822943,0.0001443999999999,53.215,325.9463,58.0211,302.0921,-0.00019412,-3.375e-05,0.0,0 STARLINK-5126,1 54012U 22125BA  23014.82153795 -.00003375  00000-0 -19412-3 0  9994,2 54012  53.2150 325.9463 0001444  58.0211 302.0921 15.08822943 16064,6917.933000000001,95.439,540.7959999999999,538.799,0.0
54012.0,STARLINK-5126,PAYLOAD,2023-01-15 03:39:55,15.08833921,0.0001217999999999,53.2154,324.4598,81.2404,278.8726,0.00018861,2.715e-05,0.0,0 STARLINK-5126,1 54012U 22125BA  23015.15272404  .00002715  00000-0  18861-3 0  9992,2 54012  53.2154 324.4598 0001218  81.2404 278.8726 15.08833921 16119,6917.899,95.438,540.607,538.9209999999999,0.0
54012.0,STARLINK-5126,PAYLOAD,2023-01-15 11:36:51,15.08832045,0.0001385,53.2143,322.9727,85.7476,274.3675,-8.961200000000001e-05,-1.713e-05,0.0,0 STARLINK-5126,1 54012U 22125BA  23015.48392741 -.00001713  00000-0 -89612-4 0  9997,2 54012  53.2143 322.9727 0001385  85.7476 274.3675 15.08832045 16117,6917.905,95.438,540.7280000000001,538.812,0.0
